KUIPER-00008            
1 63724U 25088A   25271.74158884  .00011340  00000+0  93659-3 0  9990
2 63724  51.8898 105.3890 0010682 273.3989  86.5759 14.99340401 23760
KUIPER-00009            
1 63725U 25088B   25269.75280034  .00004463  00000+0  61282-3 0  9997
2 63725  51.9007 111.5317 0011730 278.7944  81.1689 14.79993887 23507
KUIPER-00010            
1 63726U 25088C   25272.25002315  .00034940  00000+0  19248-2 0  9998
2 63726  51.8802  80.3125 0010804 318.0877  94.8432 15.13645088  4393
KUIPER-00011            
1 63727U 25088D   25272.25002315 -.01773475  00000+0 -19229+0 0  9991
2 63727  51.8911  84.9475 0011408 307.0846 130.8828 14.91561976  5511
KUIPER-00012            
1 63728U 25088E   25271.70126869  .00016662  00000+0  75796-3 0  9992
2 63728  51.8748  83.2788 0009925 291.8639  68.1285 15.20796608 23773
KUIPER-00013            
1 63729U 25088F   25271.98042152  .00006528  00000+0  88411-3 0  9993
2 63729  51.9006 103.1491 0007347 208.1459 151.9107 14.79940256 23623
KUIPER-00014            
1 63730U 25088G   25271.84366029  .00009455  00000+0  12668-2 0  9994
2 63730  51.9026 104.7201 0007773 277.8303  82.1777 14.79943987 23405
KUIPER-00015            
1 63731U 25088H   25271.76771770  .00007030  00000+0  91535-3 0  9997
2 63731  51.8979 116.9602 0009864 260.4398  99.5450 14.81492470 23686
